[{"OBJECT_NAME":"STARLINK-3562","OBJECT_ID":"2022-022K","EPOCH":"2026-03-09T23:29:22.419744","MEAN_MOTION":15.08837729,"ECCENTRICITY":0.00013025,"INCLINATION":53.2181,"RA_OF_ASC_NODE":7.8249,"ARG_OF_PERICENTER":77.2749,"MEAN_ANOMALY":282.8389,"EPHEMERIS_TYPE":0,"CLASSIFICATION_TYPE":"U","NORAD_CAT_ID":51861,"ELEMENT_SET_NO":999,"REV_AT_EPOCH":22307,"BSTAR":0.00032739848,"MEAN_MOTION_DOT":4.926e-5,"MEAN_MOTION_DDOT":0},{"OBJECT_NAME":"CZ-6A DEB","OBJECT_ID":"2024-140RN","EPOCH":"2026-03-09T09:36:23.350464","MEAN_MOTION":14.99974811,"ECCENTRICITY":0.0047719,"INCLINATION":88.1445,"RA_OF_ASC_NODE":217.6461,"ARG_OF_PERICENTER":172.1525,"MEAN_ANOMALY":188.0467,"EPHEMERIS_TYPE":0,"CLASSIFICATION_TYPE":"U","NORAD_CAT_ID":61168,"ELEMENT_SET_NO":999,"REV_AT_EPOCH":8322,"BSTAR":0.0063622011,"MEAN_MOTION_DOT":0.00081758,"MEAN_MOTION_DDOT":0}]
